STARLINK-33829          
1 63496U 25071D   25152.02778998  .00001007  00000+0  35145-4 0  9997
2 63496  53.1613  11.2421 0000913  68.5481 291.5621 15.39620278  9542
STARLINK-33815          
1 63497U 25071E   25151.88867372 -.00000869  00000+0 -11739-4 0  9996
2 63497  53.1616  11.7941 0001200 104.2513 255.8625 15.39621117  9586
STARLINK-33833          
1 63498U 25071F   25151.87507399  .00000487  00000+0  22149-4 0  9997
2 63498  53.1616  11.7112 0000924  66.7402 293.3700 15.39617222  9581
STARLINK-33534          
1 63499U 25071G   25151.87938728  .00000416  00000+0  20381-4 0  9990
2 63499  53.1619  11.7370 0000937  76.1807 283.9302 15.39616379  9562
STARLINK-33838          
1 63500U 25071H   25151.87010016  .00000568  00000+0  24190-4 0  9994
2 63500  53.1611  11.6734 0001183 109.2405 250.8727 15.39617349  9377
STARLINK-33837          
1 63501U 25071J   25151.88403130  .00000535  00000+0  23357-4 0  9997
2 63501  53.1614  11.7639 0001131  79.3534 280.7599 15.39618095  9524
STARLINK-33818          
1 63502U 25071K   25151.87474331  .00001118  00000+0  37924-4 0  9991
2 63502  53.1625  11.7063 0001161  83.3706 276.7431 15.39613189  9582
STARLINK-33583          
1 63503U 25071L   25151.91668981 -.01137875  00000+0 -36788-1 0  9990
2 63503  53.1603  11.4418 0001357  77.2697 187.6318 15.34501012  5832
STARLINK-33811          
1 63504U 25071M   25151.93070530  .00002077  00000+0  61915-4 0  9995
2 63504  53.1623  11.3450 0001084  67.0279 293.0841 15.39612590  9533
STARLINK-33825          
1 63505U 25071N   25151.98168609  .00031140  00000+0  78540-3 0  9990
2 63505  53.1602  10.9472 0001136 105.9843 254.1287 15.39616031  9612
STARLINK-33792          
1 63506U 25071P   25151.87043114 -.00000599  00000+0 -49938-5 0  9999
2 63506  53.1613  11.6760 0000955 109.9531 250.1577 15.39618281  9537
STARLINK-33843          
1 63507U 25071Q   25151.92519927 -.00000239  00000+0  40037-5 0  9997
2 63507  53.1629   9.8553 0001211  78.1831 281.9310 15.39616759  9591
STARLINK-33809          
1 63508U 25071R   25151.90662036  .00000664  00000+0  26578-4 0  9990
2 63508  53.1611   9.7354 0000995 102.7962 257.3154 15.39618963  9556
STARLINK-33678          
1 63509U 25071S   25151.83706962  .00009552  00000+0  24880-3 0  9998
2 63509  53.1615  10.0121 0000550 106.6825 253.4240 15.39580363  9337
STARLINK-33764          
1 63510U 25071T   25151.89733250  .00001396  00000+0  44883-4 0  9990
2 63510  53.1626   9.6761 0001169  91.9987 268.1152 15.39621334  9594
STARLINK-33804          
1 63511U 25071U   25151.89269370 -.00000335  00000+0  16141-5 0  9998
2 63511  53.1625   9.6441 0001140  79.7165 280.3968 15.39614144  9244
STARLINK-33751          
1 63512U 25071V   25151.88807394 -.00002479  00000+0 -52067-4 0  9990
2 63512  53.1621   9.6149 0001232  63.5696 296.5435 15.39594734  9596
STARLINK-33750          
1 63513U 25071W   25151.88339916 -.00000187  00000+0  53007-5 0  9990
2 63513  53.1608   9.5885 0000687  61.6616 298.4458 15.39623648  9595
STARLINK-33786          
1 63514U 25071X   25152.00859157  .00002899  00000+0  82449-4 0  9992
2 63514  53.1611   8.9433 0000584  68.8043 291.3024 15.39606842  9252
STARLINK-33796          
1 63515U 25071Y   25151.86947040 -.00001249  00000+0 -21249-4 0  9996
2 63515  53.1620   9.4982 0000732 107.2187 252.8898 15.39622449  9612
STARLINK-33785          
1 63516U 25071Z   25151.87411792  .00000966  00000+0  34120-4 0  9993
2 63516  53.1612   9.5279 0001197  81.5253 278.5887 15.39616779  9597
STARLINK-33803          
1 63517U 25071AA  25151.84194457  .00001134  00000+0  38309-4 0  9998
2 63517  53.1629   9.3163 0000894  91.5349 268.5758 15.39621847  9617
STARLINK-33807          
1 63518U 25071AB  25151.88820759  .00027889  00000+0  94971-3 0  9995
2 63518  53.1599  11.0399 0001135  84.3845 275.7285 15.30216605  9590
STARLINK-33787          
1 63519U 25071AC  25152.25001157 -.00045158  00000+0 -15196-2 0  9993
2 63519  53.1589   9.4182 0001043  94.3693  70.7746 15.30245959  9275
STARLINK-11669 [DTC]    
1 63548U 25075A   25152.10768783  .00001211  00000+0  98237-5 0  9998
2 63548  43.0002  51.9371 0001349 275.2110  84.8606 15.77851403  8942
STARLINK-11665 [DTC]    
1 63549U 25075B   25152.10280023  .00003198  00000+0  21249-4 0  9999
2 63549  42.9986  51.8999 0002443 262.5933  97.4659 15.77849601  8940
STARLINK-11667 [DTC]    
1 63550U 25075C   25151.97132745 -.00000564  00000+0 -37206-6 0  9990
2 63550  42.9987  52.6312 0002081 283.4474  76.6164 15.77851992  8925
STARLINK-11695 [DTC]    
1 63551U 25075D   25152.09305039 -.00004345  00000+0 -22099-4 0  9996
2 63551  42.9993  51.8193 0000997 280.9401  79.1357 15.77873922  8959
STARLINK-11685 [DTC]    
1 63552U 25075E   25151.13819747 -.00000700  00000+0 -11558-5 0  9997
2 63552  42.9970  57.5644 0001545 275.0761  84.9933 15.77855591  8803
STARLINK-11697 [DTC]    
1 63553U 25075F   25152.08281237  .00003032  00000+0  20291-4 0  9992
2 63553  42.9990  51.7373 0001725 270.7672  89.3001 15.77848179  8959
STARLINK-11680 [DTC]    
1 63554U 25075G   25152.07793419  .00000881  00000+0  79265-5 0  9997
2 63554  42.9955  51.6982 0001266 270.9992  89.0733 15.77854088  8958
STARLINK-11687 [DTC]    
1 63555U 25075H   25152.13637480  .00002189  00000+0  15467-4 0  9996
2 63555  43.0003  51.2726 0002025 267.2484  92.8155 15.77822719  8952
STARLINK-11626 [DTC]    
1 63556U 25075J   25152.25001157  .00039673  00000+0  31153-3 0  9993
2 63556  42.9993  50.6341 0001365 277.2995 348.7480 15.70814844  8978
STARLINK-11668 [DTC]    
1 63557U 25075K   25152.25001157  .00000290  00000+0  57554-5 0  9992
2 63557  42.9993  50.5600 0001276 280.8670  15.2379 15.70835528  8972
STARLINK-11657 [DTC]    
1 63558U 25075L   25152.12290377 -.00131593  00000+0 -80503-3 0  9994
2 63558  42.9933  51.1690 0001398 325.7483  34.3297 15.76717519  8953
STARLINK-11606 [DTC]    
1 63559U 25075M   25152.11682767  .00001663  00000+0  12422-4 0  9990
2 63559  42.9989  51.1160 0001959 268.4198  91.6448 15.77859066  8955
STARLINK-11592 [DTC]    
1 63560U 25075N   25152.11195613  .00001559  00000+0  11825-4 0  9991
2 63560  42.9995  51.0749 0001449 273.0664  87.0041 15.77854190  8951
STARLINK-32953          
1 63561U 25075P   25152.11680631  .00000967  00000+0  30409-4 0  9992
2 63561  43.0025  61.7529 0000896 293.3545  66.7217 15.40691562  8849
STARLINK-32951          
1 63562U 25075Q   25151.91668981 -.00031309  00000+0 -11327-2 0  9996
2 63562  42.9999  62.0327 0001398 267.6215  50.0295 15.27589588  5886
STARLINK-32958          
1 63563U 25075R   25152.05870935  .00020352  00000+0  49361-3 0  9991
2 63563  42.9971  62.1744 0000310 273.9487  86.1334 15.40671779  8847
STARLINK-32928          
1 63564U 25075S   25152.10784070 -.00001576  00000+0 -30481-4 0  9995
2 63564  43.0002  61.6802 0000888 270.5019  89.5735 15.40702845  8849
STARLINK-32687          
1 63565U 25075T   25152.25001157  .00032228  00000+0  11768-2 0  9991
2 63565  42.9999  60.1319 0001623 263.8178  96.1160 15.27545118  8882
STARLINK-32950          
1 63566U 25075U   25152.15679074  .00004331  00000+0  16266-3 0  9993
2 63566  43.0004  60.2532 0001224 282.5953  77.4762 15.28419537  8871
STARLINK-32954          
1 63567U 25075V   25151.91668981 -.00083800  00000+0 -29876-2 0  9992
2 63567  43.0001  61.7850 0001117 265.9656 154.5482 15.28470585  5888
STARLINK-32940          
1 63568U 25075W   25152.25001157  .00047938  00000+0  16977-2 0  9995
2 63568  43.0000  59.9682 0001514 279.6888 148.5733 15.28391678  8880
STARLINK-32959          
1 63569U 25076A   25151.95455123  .00000917  00000+0  29202-4 0  9992
2 63569  43.0022 117.0976 0001504 265.1810  94.8874 15.40703568  8698
STARLINK-32956          
1 63570U 25076B   25151.62817108  .00000864  00000+0  27961-4 0  9994
2 63570  43.0004 118.9503 0001607 274.0112  86.0561 15.40694239  8638
STARLINK-33722          
1 63571U 25076C   25151.24514529 -.00000215  00000+0  21137-5 0  9995
2 63571  43.0028 118.5673 0001419 263.1759  96.8936 15.40694198  8602
STARLINK-33739          
1 63572U 25076D   25152.15722859  .00000209  00000+0  12268-4 0  9990
2 63572  43.0043 113.3730 0001774 247.7579 112.3089 15.40714620  8672
STARLINK-33683          
1 63573U 25076E   25151.62963348  .00000371  00000+0  16146-4 0  9991
2 63573  43.0036 116.2924 0001227 277.6510  82.4207 15.40698610  8671
STARLINK-33724          
1 63574U 25076F   25152.34017476  .18104540  89433-5  56612-2 0  9999
2 63574  42.9906 103.8065 0007447 231.3569 261.7491 16.25475365  8687
STARLINK-33732          
1 63575U 25076G   25151.37704322 -.00000677  00000+0 -89467-5 0  9998
2 63575  43.0010 117.8391 0001173 265.6825  94.3898 15.40697864  8630
STARLINK-33800          
1 63576U 25076H   25151.62739360  .00000293  00000+0  14266-4 0  9993
2 63576  43.0026 116.2749 0001256 265.0711  95.0003 15.40697494  8677
STARLINK-33632          
1 63577U 25076J   25151.62066801  .00000654  00000+0  22948-4 0  9994
2 63577  43.0069 116.2219 0003037 265.4514  94.5995 15.40693840  8676
STARLINK-33719          
1 63578U 25076K   25151.62515603  .00000462  00000+0  18321-4 0  9991
2 63578  43.0009 116.2591 0000872 269.0738  91.0019 15.40696216  8675
STARLINK-33755          
1 63579U 25076L   25152.25001157  .00000590  00000+0  30964-4 0  9995
2 63579  43.0025 110.9755 0001460 277.7147 258.3622 15.27562022  8783
STARLINK-33752          
1 63580U 25076M   25151.61843313  .00000348  00000+0  15599-4 0  9992
2 63580  43.0032 116.2054 0001792 273.3870  86.6782 15.40696444  8675
STARLINK-33714          
1 63581U 25076N   25152.19964019 -.00004911  00000+0 -11023-3 0  9993
2 63581  43.0011 112.8256 0000136 120.0871 239.9999 15.40744769  8632
STARLINK-33814          
1 63582U 25076P   25151.61394905 -.00003369  00000+0 -73398-4 0  9991
2 63582  43.0031 116.1694 0001594 264.0051  96.0624 15.40711506  8670
